[{"OBJECT_NAME":"STARLINK-4707","OBJECT_ID":"2022-107X","EPOCH":"2026-03-09T22:33:01.798560","MEAN_MOTION":15.08836989,"ECCENTRICITY":0.00012458,"INCLINATION":53.2157,"RA_OF_ASC_NODE":252.836,"ARG_OF_PERICENTER":94.8491,"MEAN_ANOMALY":265.2644,"EPHEMERIS_TYPE":0,"CLASSIFICATION_TYPE":"U","NORAD_CAT_ID":53721,"ELEMENT_SET_NO":999,"REV_AT_EPOCH":19445,"BSTAR":0.00011986102,"MEAN_MOTION_DOT":1.62e-5,"MEAN_MOTION_DDOT":0},{"OBJECT_NAME":"OBJECT B","OBJECT_ID":"2024-174B","EPOCH":"2026-03-09T23:26:11.570784","MEAN_MOTION":15.09493991,"ECCENTRICITY":0.00195829,"INCLINATION":97.4508,"RA_OF_ASC_NODE":75.153,"ARG_OF_PERICENTER":270.277,"MEAN_ANOMALY":89.6216,"EPHEMERIS_TYPE":0,"CLASSIFICATION_TYPE":"U","NORAD_CAT_ID":61239,"ELEMENT_SET_NO":999,"REV_AT_EPOCH":8042,"BSTAR":0.00031274192,"MEAN_MOTION_DOT":4.97e-5,"MEAN_MOTION_DDOT":0}]
